CCSDS_OMM_VERS = 2.0
CREATION_DATE  = 
ORIGINATOR     = 

OBJECT_NAME    = STARLINK-36240
OBJECT_ID      = 2025-298B
CENTER_NAME    = EARTH
REF_FRAME      = TEME
TIME_SYSTEM    = UTC
MEAN_ELEMENT_THEORY = SGP/SGP4

EPOCH          = 2025-12-27T22:00:03.999744
MEAN_MOTION    = 15.70721525
ECCENTRICITY   = .00036378
INCLINATION    = 69.9995
RA_OF_ASC_NODE = 206.8453
ARG_OF_PERICENTER = 274.4429
MEAN_ANOMALY   = 23.5937

EPHEMERIS_TYPE = 0
CLASSIFICATION_TYPE = U
NORAD_CAT_ID   = 67076
ELEMENT_SET_NO = 999
REV_AT_EPOCH   = 341
BSTAR          = -.15487762E-1
MEAN_MOTION_DOT = -.1700524E-1
MEAN_MOTION_DDOT = 0

CCSDS_OMM_VERS = 2.0
CREATION_DATE  = 
ORIGINATOR     = 

OBJECT_NAME    = STARLINK-36243
OBJECT_ID      = 2025-298C
CENTER_NAME    = EARTH
REF_FRAME      = TEME
TIME_SYSTEM    = UTC
MEAN_ELEMENT_THEORY = SGP/SGP4

EPOCH          = 2025-12-27T22:00:03.999744
MEAN_MOTION    = 15.70708517
ECCENTRICITY   = .00036167
INCLINATION    = 69.9994
RA_OF_ASC_NODE = 206.8426
ARG_OF_PERICENTER = 274.2379
MEAN_ANOMALY   = 25.9189

EPHEMERIS_TYPE = 0
CLASSIFICATION_TYPE = U
NORAD_CAT_ID   = 67077
ELEMENT_SET_NO = 999
REV_AT_EPOCH   = 341
BSTAR          = -.1548517E-1
MEAN_MOTION_DOT = -.1699432E-1
MEAN_MOTION_DDOT = 0

CCSDS_OMM_VERS = 2.0
CREATION_DATE  = 
ORIGINATOR     = 

OBJECT_NAME    = STARLINK-36236
OBJECT_ID      = 2025-298D
CENTER_NAME    = EARTH
REF_FRAME      = TEME
TIME_SYSTEM    = UTC
MEAN_ELEMENT_THEORY = SGP/SGP4

EPOCH          = 2025-12-27T22:00:03.999744
MEAN_MOTION    = 15.70701684
ECCENTRICITY   = .00037411
INCLINATION    = 69.9995
RA_OF_ASC_NODE = 206.8405
ARG_OF_PERICENTER = 275.3916
MEAN_ANOMALY   = 26.6199

EPHEMERIS_TYPE = 0
CLASSIFICATION_TYPE = U
NORAD_CAT_ID   = 67078
ELEMENT_SET_NO = 999
REV_AT_EPOCH   = 341
BSTAR          = -.15391416E-1
MEAN_MOTION_DOT = -.1690023E-1
MEAN_MOTION_DDOT = 0

CCSDS_OMM_VERS = 2.0
CREATION_DATE  = 
ORIGINATOR     = 

OBJECT_NAME    = STARLINK-36159
OBJECT_ID      = 2025-298E
CENTER_NAME    = EARTH
REF_FRAME      = TEME
TIME_SYSTEM    = UTC
MEAN_ELEMENT_THEORY = SGP/SGP4

EPOCH          = 2025-12-27T22:00:03.999744
MEAN_MOTION    = 15.69721726
ECCENTRICITY   = .00037671
INCLINATION    = 69.9994
RA_OF_ASC_NODE = 206.8395
ARG_OF_PERICENTER = 270.5543
MEAN_ANOMALY   = 32.3212

EPHEMERIS_TYPE = 0
CLASSIFICATION_TYPE = U
NORAD_CAT_ID   = 67079
ELEMENT_SET_NO = 999
REV_AT_EPOCH   = 341
BSTAR          = -.22643795E-1
MEAN_MOTION_DOT = -.2330604E-1
MEAN_MOTION_DDOT = 0

CCSDS_OMM_VERS = 2.0
CREATION_DATE  = 
ORIGINATOR     = 

OBJECT_NAME    = STARLINK-36158
OBJECT_ID      = 2025-298F
CENTER_NAME    = EARTH
REF_FRAME      = TEME
TIME_SYSTEM    = UTC
MEAN_ELEMENT_THEORY = SGP/SGP4

EPOCH          = 2025-12-27T22:00:03.999744
MEAN_MOTION    = 15.70690014
ECCENTRICITY   = .00038085
INCLINATION    = 69.9995
RA_OF_ASC_NODE = 206.8360
ARG_OF_PERICENTER = 273.3593
MEAN_ANOMALY   = 32.8265

EPHEMERIS_TYPE = 0
CLASSIFICATION_TYPE = U
NORAD_CAT_ID   = 67080
ELEMENT_SET_NO = 999
REV_AT_EPOCH   = 335
BSTAR          = -.1543755E-1
MEAN_MOTION_DOT = -.1693823E-1
MEAN_MOTION_DDOT = 0

CCSDS_OMM_VERS = 2.0
CREATION_DATE  = 
ORIGINATOR     = 

OBJECT_NAME    = STARLINK-35864
OBJECT_ID      = 2025-298G
CENTER_NAME    = EARTH
REF_FRAME      = TEME
TIME_SYSTEM    = UTC
MEAN_ELEMENT_THEORY = SGP/SGP4

EPOCH          = 2025-12-27T22:00:03.999744
MEAN_MOTION    = 15.70692241
ECCENTRICITY   = .0003644
INCLINATION    = 69.9998
RA_OF_ASC_NODE = 206.8333
ARG_OF_PERICENTER = 273.9384
MEAN_ANOMALY   = 34.1931

EPHEMERIS_TYPE = 0
CLASSIFICATION_TYPE = U
NORAD_CAT_ID   = 67081
ELEMENT_SET_NO = 999
REV_AT_EPOCH   = 341
BSTAR          = -.15517186E-1
MEAN_MOTION_DOT = -.1701527E-1
MEAN_MOTION_DDOT = 0

CCSDS_OMM_VERS = 2.0
CREATION_DATE  = 
ORIGINATOR     = 

OBJECT_NAME    = STARLINK-36035
OBJECT_ID      = 2025-298H
CENTER_NAME    = EARTH
REF_FRAME      = TEME
TIME_SYSTEM    = UTC
MEAN_ELEMENT_THEORY = SGP/SGP4

EPOCH          = 2025-12-27T22:00:03.999744
MEAN_MOTION    = 15.70685872
ECCENTRICITY   = .00037423
INCLINATION    = 69.9997
RA_OF_ASC_NODE = 206.8309
ARG_OF_PERICENTER = 274.7023
MEAN_ANOMALY   = 35.4404

EPHEMERIS_TYPE = 0
CLASSIFICATION_TYPE = U
NORAD_CAT_ID   = 67082
ELEMENT_SET_NO = 999
REV_AT_EPOCH   = 341
BSTAR          = -.1550848E-1
MEAN_MOTION_DOT = -.170037E-1
MEAN_MOTION_DDOT = 0

CCSDS_OMM_VERS = 2.0
CREATION_DATE  = 
ORIGINATOR     = 

OBJECT_NAME    = STARLINK-36170
OBJECT_ID      = 2025-298J
CENTER_NAME    = EARTH
REF_FRAME      = TEME
TIME_SYSTEM    = UTC
MEAN_ELEMENT_THEORY = SGP/SGP4

EPOCH          = 2025-12-27T22:00:03.999744
MEAN_MOTION    = 15.70681627
ECCENTRICITY   = .00036282
INCLINATION    = 69.9996
RA_OF_ASC_NODE = 206.8281
ARG_OF_PERICENTER = 274.4363
MEAN_ANOMALY   = 37.7415

EPHEMERIS_TYPE = 0
CLASSIFICATION_TYPE = U
NORAD_CAT_ID   = 67083
ELEMENT_SET_NO = 999
REV_AT_EPOCH   = 341
BSTAR          = -.15540222E-1
MEAN_MOTION_DOT = -.170307E-1
MEAN_MOTION_DDOT = 0

CCSDS_OMM_VERS = 2.0
CREATION_DATE  = 
ORIGINATOR     = 

OBJECT_NAME    = STARLINK-36166
OBJECT_ID      = 2025-298K
CENTER_NAME    = EARTH
REF_FRAME      = TEME
TIME_SYSTEM    = UTC
MEAN_ELEMENT_THEORY = SGP/SGP4

EPOCH          = 2025-12-27T22:00:03.999744
MEAN_MOTION    = 15.70676943
ECCENTRICITY   = .00036789
INCLINATION    = 69.9997
RA_OF_ASC_NODE = 206.8256
ARG_OF_PERICENTER = 274.7306
MEAN_ANOMALY   = 39.4180

EPHEMERIS_TYPE = 0
CLASSIFICATION_TYPE = U
NORAD_CAT_ID   = 67084
ELEMENT_SET_NO = 999
REV_AT_EPOCH   = 335
BSTAR          = -.15520431E-1
MEAN_MOTION_DOT = -.1700905E-1
MEAN_MOTION_DDOT = 0

CCSDS_OMM_VERS = 2.0
CREATION_DATE  = 
ORIGINATOR     = 

OBJECT_NAME    = STARLINK-35794
OBJECT_ID      = 2025-298L
CENTER_NAME    = EARTH
REF_FRAME      = TEME
TIME_SYSTEM    = UTC
MEAN_ELEMENT_THEORY = SGP/SGP4

EPOCH          = 2025-12-27T22:00:03.999744
MEAN_MOTION    = 15.70674923
ECCENTRICITY   = .00037037
INCLINATION    = 69.9998
RA_OF_ASC_NODE = 206.8235
ARG_OF_PERICENTER = 274.6219
MEAN_ANOMALY   = 41.4799

EPHEMERIS_TYPE = 0
CLASSIFICATION_TYPE = U
NORAD_CAT_ID   = 67085
ELEMENT_SET_NO = 999
REV_AT_EPOCH   = 341
BSTAR          = -.1552341E-1
MEAN_MOTION_DOT = -.1701087E-1
MEAN_MOTION_DDOT = 0

CCSDS_OMM_VERS = 2.0
CREATION_DATE  = 
ORIGINATOR     = 

OBJECT_NAME    = STARLINK-35841
OBJECT_ID      = 2025-298M
CENTER_NAME    = EARTH
REF_FRAME      = TEME
TIME_SYSTEM    = UTC
MEAN_ELEMENT_THEORY = SGP/SGP4

EPOCH          = 2025-12-27T22:00:03.999744
MEAN_MOTION    = 15.70665130
ECCENTRICITY   = .00036485
INCLINATION    = 69.9996
RA_OF_ASC_NODE = 206.8209
ARG_OF_PERICENTER = 274.1381
MEAN_ANOMALY   = 44.0549

EPHEMERIS_TYPE = 0
CLASSIFICATION_TYPE = U
NORAD_CAT_ID   = 67086
ELEMENT_SET_NO = 999
REV_AT_EPOCH   = 341
BSTAR          = -.1554115E-1
MEAN_MOTION_DOT = -.1702133E-1
MEAN_MOTION_DDOT = 0

CCSDS_OMM_VERS = 2.0
CREATION_DATE  = 
ORIGINATOR     = 

OBJECT_NAME    = STARLINK-35842
OBJECT_ID      = 2025-298N
CENTER_NAME    = EARTH
REF_FRAME      = TEME
TIME_SYSTEM    = UTC
MEAN_ELEMENT_THEORY = SGP/SGP4

EPOCH          = 2025-12-27T22:00:03.999744
MEAN_MOTION    = 15.64788142
ECCENTRICITY   = .00035814
INCLINATION    = 69.9997
RA_OF_ASC_NODE = 206.8644
ARG_OF_PERICENTER = 269.8920
MEAN_ANOMALY   = 10.7171

EPHEMERIS_TYPE = 0
CLASSIFICATION_TYPE = U
NORAD_CAT_ID   = 67087
ELEMENT_SET_NO = 999
REV_AT_EPOCH   = 341
BSTAR          = -.29066876E-1
MEAN_MOTION_DOT = -.2482449E-1
MEAN_MOTION_DDOT = 0

