STARLINK-36240          
1 67076U 25298B   25361.91671296 -.01700524  00000+0 -15488-1 0  9997
2 67076  69.9995 206.8453 0003637 274.4429  23.5937 15.70721525  3416
STARLINK-36243          
1 67077U 25298C   25361.91671296 -.01699432  00000+0 -15485-1 0  9990
2 67077  69.9994 206.8426 0003616 274.2379  25.9189 15.70708517  3416
STARLINK-36236          
1 67078U 25298D   25361.91671296 -.01690023  00000+0 -15391-1 0  9994
2 67078  69.9995 206.8405 0003741 275.3916  26.6199 15.70701684  3410
STARLINK-36159          
1 67079U 25298E   25361.91671296 -.02330604  00000+0 -22644-1 0  9991
2 67079  69.9994 206.8395 0003767 270.5543  32.3212 15.69721726  3416
STARLINK-36158          
1 67080U 25298F   25361.91671296 -.01693823  00000+0 -15438-1 0  9990
2 67080  69.9995 206.8360 0003808 273.3593  32.8265 15.70690014  3356
STARLINK-35864          
1 67081U 25298G   25361.91671296 -.01701527  00000+0 -15517-1 0  9990
2 67081  69.9998 206.8333 0003644 273.9384  34.1931 15.70692241  3418
STARLINK-36035          
1 67082U 25298H   25361.91671296 -.01700370  00000+0 -15508-1 0  9996
2 67082  69.9997 206.8309 0003742 274.7023  35.4404 15.70685872  3410
STARLINK-36170          
1 67083U 25298J   25361.91671296 -.01703070  00000+0 -15540-1 0  9993
2 67083  69.9996 206.8281 0003628 274.4363  37.7415 15.70681627  3417
STARLINK-36166          
1 67084U 25298K   25361.91671296 -.01700905  00000+0 -15520-1 0  9996
2 67084  69.9997 206.8256 0003678 274.7306  39.4180 15.70676943  3352
STARLINK-35794          
1 67085U 25298L   25361.91671296 -.01701087  00000+0 -15523-1 0  9992
2 67085  69.9998 206.8235 0003703 274.6219  41.4799 15.70674923  3414
STARLINK-35841          
1 67086U 25298M   25361.91671296 -.01702133  00000+0 -15541-1 0  9996
2 67086  69.9996 206.8209 0003648 274.1381  44.0549 15.70665130  3419
STARLINK-35842          
1 67087U 25298N   25361.91671296 -.02482449  00000+0 -29067-1 0  9991
2 67087  69.9997 206.8644 0003581 269.8920  10.7171 15.64788142  3413
